CCSDS_OMM_VERS = 2.0
CREATION_DATE  = 
ORIGINATOR     = 

OBJECT_NAME    = H-2A R/B
OBJECT_ID      = 2006-002B
CENTER_NAME    = EARTH
REF_FRAME      = TEME
TIME_SYSTEM    = UTC
MEAN_ELEMENT_THEORY = SGP/SGP4

EPOCH          = 2026-03-28T09:54:22.372416
MEAN_MOTION    = 15.16827933
ECCENTRICITY   = .0052389
INCLINATION    = 98.2444
RA_OF_ASC_NODE = 236.0565
ARG_OF_PERICENTER = 176.9793
MEAN_ANOMALY   = 183.1765

EPHEMERIS_TYPE = 0
CLASSIFICATION_TYPE = U
NORAD_CAT_ID   = 28932
ELEMENT_SET_NO = 999
REV_AT_EPOCH   = 9727
BSTAR          = .63649E-3
MEAN_MOTION_DOT = .12896E-3
MEAN_MOTION_DDOT = 0

CCSDS_OMM_VERS = 2.0
CREATION_DATE  = 
ORIGINATOR     = 

OBJECT_NAME    = RESURS-DK 1
OBJECT_ID      = 2006-021A
CENTER_NAME    = EARTH
REF_FRAME      = TEME
TIME_SYSTEM    = UTC
MEAN_ELEMENT_THEORY = SGP/SGP4

EPOCH          = 2026-03-28T10:42:25.195680
MEAN_MOTION    = 15.12861445
ECCENTRICITY   = .0001189
INCLINATION    = 69.9337
RA_OF_ASC_NODE = 188.5042
ARG_OF_PERICENTER = 54.2982
MEAN_ANOMALY   = 305.8294

EPHEMERIS_TYPE = 0
CLASSIFICATION_TYPE = U
NORAD_CAT_ID   = 29228
ELEMENT_SET_NO = 999
REV_AT_EPOCH   = 9036
BSTAR          = .1521E-3
MEAN_MOTION_DOT = .2574E-4
MEAN_MOTION_DDOT = 0

CCSDS_OMM_VERS = 2.0
CREATION_DATE  = 
ORIGINATOR     = 

OBJECT_NAME    = CZ-4B R/B
OBJECT_ID      = 2006-046C
CENTER_NAME    = EARTH
REF_FRAME      = TEME
TIME_SYSTEM    = UTC
MEAN_ELEMENT_THEORY = SGP/SGP4

EPOCH          = 2026-03-28T01:53:03.597504
MEAN_MOTION    = 15.17083277
ECCENTRICITY   = .00326645
INCLINATION    = 97.5560
RA_OF_ASC_NODE = 131.9368
ARG_OF_PERICENTER = 201.2425
MEAN_ANOMALY   = 158.7454

EPHEMERIS_TYPE = 0
CLASSIFICATION_TYPE = U
NORAD_CAT_ID   = 29507
ELEMENT_SET_NO = 999
REV_AT_EPOCH   = 6283
BSTAR          = .23881862E-3
MEAN_MOTION_DOT = .4724E-4
MEAN_MOTION_DDOT = 0

CCSDS_OMM_VERS = 2.0
CREATION_DATE  = 
ORIGINATOR     = 

OBJECT_NAME    = CZ-2C R/B
OBJECT_ID      = 2007-010B
CENTER_NAME    = EARTH
REF_FRAME      = TEME
TIME_SYSTEM    = UTC
MEAN_ELEMENT_THEORY = SGP/SGP4

EPOCH          = 2026-03-28T12:51:59.730336
MEAN_MOTION    = 14.20252853
ECCENTRICITY   = .0058072
INCLINATION    = 98.3998
RA_OF_ASC_NODE = 199.8721
ARG_OF_PERICENTER = 238.7731
MEAN_ANOMALY   = 120.7748

EPHEMERIS_TYPE = 0
CLASSIFICATION_TYPE = U
NORAD_CAT_ID   = 31114
ELEMENT_SET_NO = 999
REV_AT_EPOCH   = 98239
BSTAR          = .80999E-4
MEAN_MOTION_DOT = .135E-5
MEAN_MOTION_DDOT = 0

CCSDS_OMM_VERS = 2.0
CREATION_DATE  = 
ORIGINATOR     = 

OBJECT_NAME    = COSMO-SKYMED 1
OBJECT_ID      = 2007-023A
CENTER_NAME    = EARTH
REF_FRAME      = TEME
TIME_SYSTEM    = UTC
MEAN_ELEMENT_THEORY = SGP/SGP4

EPOCH          = 2026-03-28T12:26:59.951616
MEAN_MOTION    = 14.96667789
ECCENTRICITY   = .0000959
INCLINATION    = 97.8875
RA_OF_ASC_NODE = 278.7045
ARG_OF_PERICENTER = 99.5689
MEAN_ANOMALY   = 260.5640

EPHEMERIS_TYPE = 0
CLASSIFICATION_TYPE = U
NORAD_CAT_ID   = 31598
ELEMENT_SET_NO = 999
REV_AT_EPOCH   = 1772
BSTAR          = .31796E-3
MEAN_MOTION_DOT = .3568E-4
MEAN_MOTION_DDOT = 0

CCSDS_OMM_VERS = 2.0
CREATION_DATE  = 
ORIGINATOR     = 

OBJECT_NAME    = COSMOS 2428
OBJECT_ID      = 2007-029A
CENTER_NAME    = EARTH
REF_FRAME      = TEME
TIME_SYSTEM    = UTC
MEAN_ELEMENT_THEORY = SGP/SGP4

EPOCH          = 2026-03-28T12:11:11.834304
MEAN_MOTION    = 14.12948328
ECCENTRICITY   = .0009698
INCLINATION    = 70.9434
RA_OF_ASC_NODE = 163.8484
ARG_OF_PERICENTER = 257.7084
MEAN_ANOMALY   = 102.2952

EPHEMERIS_TYPE = 0
CLASSIFICATION_TYPE = U
NORAD_CAT_ID   = 31792
ELEMENT_SET_NO = 999
REV_AT_EPOCH   = 96675
BSTAR          = .55427E-5
MEAN_MOTION_DOT = -.38E-6
MEAN_MOTION_DDOT = 0

CCSDS_OMM_VERS = 2.0
CREATION_DATE  = 
ORIGINATOR     = 

OBJECT_NAME    = SL-16 R/B
OBJECT_ID      = 2007-029B
CENTER_NAME    = EARTH
REF_FRAME      = TEME
TIME_SYSTEM    = UTC
MEAN_ELEMENT_THEORY = SGP/SGP4

EPOCH          = 2026-03-28T12:28:21.991008
MEAN_MOTION    = 14.14843431
ECCENTRICITY   = .0002705
INCLINATION    = 70.9748
RA_OF_ASC_NODE = 132.8043
ARG_OF_PERICENTER = 277.8449
MEAN_ANOMALY   = 185.4810

EPHEMERIS_TYPE = 0
CLASSIFICATION_TYPE = U
NORAD_CAT_ID   = 31793
ELEMENT_SET_NO = 999
REV_AT_EPOCH   = 96803
BSTAR          = .46642E-4
MEAN_MOTION_DOT = .42E-6
MEAN_MOTION_DDOT = 0

CCSDS_OMM_VERS = 2.0
CREATION_DATE  = 
ORIGINATOR     = 

OBJECT_NAME    = KORONAS-FOTON
OBJECT_ID      = 2009-003A
CENTER_NAME    = EARTH
REF_FRAME      = TEME
TIME_SYSTEM    = UTC
MEAN_ELEMENT_THEORY = SGP/SGP4

EPOCH          = 2026-03-28T11:59:14.926848
MEAN_MOTION    = 15.43816881
ECCENTRICITY   = .001178
INCLINATION    = 82.4276
RA_OF_ASC_NODE = 256.3122
ARG_OF_PERICENTER = 88.8252
MEAN_ANOMALY   = 271.4344

EPHEMERIS_TYPE = 0
CLASSIFICATION_TYPE = U
NORAD_CAT_ID   = 33504
ELEMENT_SET_NO = 999
REV_AT_EPOCH   = 94864
BSTAR          = .35436E-3
MEAN_MOTION_DOT = .16135E-3
MEAN_MOTION_DDOT = 0

CCSDS_OMM_VERS = 2.0
CREATION_DATE  = 
ORIGINATOR     = 

OBJECT_NAME    = CZ-2C R/B
OBJECT_ID      = 2011-030B
CENTER_NAME    = EARTH
REF_FRAME      = TEME
TIME_SYSTEM    = UTC
MEAN_ELEMENT_THEORY = SGP/SGP4

EPOCH          = 2026-03-28T11:14:16.323072
MEAN_MOTION    = 14.81286850
ECCENTRICITY   = .0051121
INCLINATION    = 97.8575
RA_OF_ASC_NODE = 44.3602
ARG_OF_PERICENTER = 289.9586
MEAN_ANOMALY   = 181.5724

EPHEMERIS_TYPE = 0
CLASSIFICATION_TYPE = U
NORAD_CAT_ID   = 37731
ELEMENT_SET_NO = 999
REV_AT_EPOCH   = 79287
BSTAR          = .20353E-3
MEAN_MOTION_DOT = .1568E-4
MEAN_MOTION_DDOT = 0

CCSDS_OMM_VERS = 2.0
CREATION_DATE  = 
ORIGINATOR     = 

OBJECT_NAME    = H-2A R/B
OBJECT_ID      = 2012-025E
CENTER_NAME    = EARTH
REF_FRAME      = TEME
TIME_SYSTEM    = UTC
MEAN_ELEMENT_THEORY = SGP/SGP4

EPOCH          = 2026-03-28T11:11:12.839712
MEAN_MOTION    = 14.95298054
ECCENTRICITY   = .0042734
INCLINATION    = 98.4761
RA_OF_ASC_NODE = 56.0209
ARG_OF_PERICENTER = 250.7783
MEAN_ANOMALY   = 108.8810

EPHEMERIS_TYPE = 0
CLASSIFICATION_TYPE = U
NORAD_CAT_ID   = 38341
ELEMENT_SET_NO = 999
REV_AT_EPOCH   = 75102
BSTAR          = .33845E-3
MEAN_MOTION_DOT = .3727E-4
MEAN_MOTION_DDOT = 0

CCSDS_OMM_VERS = 2.0
CREATION_DATE  = 
ORIGINATOR     = 

OBJECT_NAME    = SHIJIAN-16 (SJ-16)
OBJECT_ID      = 2013-057A
CENTER_NAME    = EARTH
REF_FRAME      = TEME
TIME_SYSTEM    = UTC
MEAN_ELEMENT_THEORY = SGP/SGP4

EPOCH          = 2026-03-28T12:48:14.502816
MEAN_MOTION    = 14.92420232
ECCENTRICITY   = .0015236
INCLINATION    = 74.9724
RA_OF_ASC_NODE = 149.4169
ARG_OF_PERICENTER = 63.6880
MEAN_ANOMALY   = 296.5872

EPHEMERIS_TYPE = 0
CLASSIFICATION_TYPE = U
NORAD_CAT_ID   = 39358
ELEMENT_SET_NO = 999
REV_AT_EPOCH   = 67431
BSTAR          = .18455E-3
MEAN_MOTION_DOT = .1866E-4
MEAN_MOTION_DDOT = 0

CCSDS_OMM_VERS = 2.0
CREATION_DATE  = 
ORIGINATOR     = 

OBJECT_NAME    = SL-4 R/B
OBJECT_ID      = 2014-021B
CENTER_NAME    = EARTH
REF_FRAME      = TEME
TIME_SYSTEM    = UTC
MEAN_ELEMENT_THEORY = SGP/SGP4

EPOCH          = 2026-03-28T10:53:28.963680
MEAN_MOTION    = 15.39818811
ECCENTRICITY   = .0095626
INCLINATION    = 51.6044
RA_OF_ASC_NODE = 245.6935
ARG_OF_PERICENTER = 171.3669
MEAN_ANOMALY   = 188.8987

EPHEMERIS_TYPE = 0
CLASSIFICATION_TYPE = U
NORAD_CAT_ID   = 39679
ELEMENT_SET_NO = 999
REV_AT_EPOCH   = 65916
BSTAR          = .4582E-3
MEAN_MOTION_DOT = .21313E-3
MEAN_MOTION_DDOT = 0

