H-2A R/B                
1 28932U 06002B   26087.41275894  .00012896  00000+0  63649-3 0  9991
2 28932  98.2444 236.0565 0052389 176.9793 183.1765 15.16827933 97274
RESURS-DK 1             
1 29228U 06021A   26087.44612495  .00002574  00000+0  15210-3 0  9999
2 29228  69.9337 188.5042 0001189  54.2982 305.8294 15.12861445 90365
CZ-4B R/B               
1 29507U 06046C   26087.07851386  .00004724  00000+0  23882-3 0  9992
2 29507  97.5560 131.9368 0032664 201.2425 158.7454 15.17083277 62839
CZ-2C R/B               
1 31114U 07010B   26087.53610799  .00000135  00000+0  80999-4 0  9998
2 31114  98.3998 199.8721 0058072 238.7731 120.7748 14.20252853982390
COSMO-SKYMED 1          
1 31598U 07023A   26087.51874944  .00003568  00000+0  31796-3 0  9993
2 31598  97.8875 278.7045 0000959  99.5689 260.5640 14.96667789 17727
COSMOS 2428             
1 31792U 07029A   26087.50777586 -.00000038  00000+0  55427-5 0  9997
2 31792  70.9434 163.8484 0009698 257.7084 102.2952 14.12948328966756
SL-16 R/B               
1 31793U 07029B   26087.51969897  .00000042  00000+0  46642-4 0  9999
2 31793  70.9748 132.8043 0002705 277.8449 185.4810 14.14843431968032
KORONAS-FOTON           
1 33504U 09003A   26087.49947832  .00016135  00000+0  35436-3 0  9995
2 33504  82.4276 256.3122 0011780  88.8252 271.4344 15.43816881948648
CZ-2C R/B               
1 37731U 11030B   26087.46824448  .00001568  00000+0  20353-3 0  9994
2 37731  97.8575  44.3602 0051121 289.9586 181.5724 14.81286850792874
H-2A R/B                
1 38341U 12025E   26087.46612083  .00003727  00000+0  33845-3 0  9996
2 38341  98.4761  56.0209 0042734 250.7783 108.8810 14.95298054751028
SHIJIAN-16 (SJ-16)      
1 39358U 13057A   26087.53350119  .00001866  00000+0  18455-3 0  9990
2 39358  74.9724 149.4169 0015236  63.6880 296.5872 14.92420232674314
SL-4 R/B                
1 39679U 14021B   26087.45380745  .00021313  00000+0  45820-3 0  9992
2 39679  51.6044 245.6935 0095626 171.3669 188.8987 15.39818811659162
